AMC-1 (GE-1)            
1 24315U 96054A   22227.61252473  .00000049  00000+0  00000+0 0  9995
2 24315   5.7561  72.6604 0003213  77.9811 262.9559  1.00273101 32264
AMC-3 (GE-3)            
1 24936U 97050A   22227.48209314 -.00000276  00000+0  00000+0 0  9995
2 24936   4.6858  78.9463 0002961  71.8238 274.6305  1.00272623 38372
ASTRA 1G                
1 25071U 97076A   22225.69416729  .00000096  00000+0  00000+0 0  9994
2 25071   6.3721  67.8595 0003441  78.8252  84.7235  1.00274814 90432
ASTRA 2A                
1 25462U 98050A   22225.68521743  .00000050  00000+0  00000+0 0  9993
2 25462   3.5435  84.9806 0002270  58.8593 122.1031  1.00271420 32265
AMC-4 (GE-4)            
1 25954U 99060A   22227.60719634  .00000072  00000+0  00000+0 0  9997
2 25954   1.6649  91.2295 0003122  58.6789 257.7495  1.00271166 29499
NSS-11 (AAP-1)          
1 26554U 00059A   22227.61577104  .00000010  00000+0  00000+0 0  9991
2 26554   0.0492 293.5111 0002390 202.2439 225.8982  1.00272657 27237
AMC-6 (GE-6)            
1 26580U 00067A   22227.60239007  .00000090  00000+0  00000+0 0  9993
2 26580   0.0152 285.8776 0002994 245.9914 229.9767  1.00272135 79854
ASTRA 2D                
1 26638U 00081A   22225.87728263  .00000110  00000+0  00000+0 0  9990
2 26638   7.4106  59.9170 0001774  92.8502 148.9917  1.00273261 38834
AMC-8 (GE-8)            
1 26639U 00081B   22227.60719709  .00000072  00000+0  00000+0 0  9996
2 26639   2.5909  87.9842 0002767  22.5556 297.0353  1.00268745 79275
ASTRA 2C                
1 26853U 01025A   22227.59390619 -.00000274  00000+0  00000+0 0  9991
2 26853   4.7103  78.7505 0002848  74.4530 312.0584  1.00268998 30995
ASTRA 3A                
1 27400U 02015B   22227.43350296 -.00000220  00000+0  00000+0 0  9991
2 27400   7.5150  58.7885 0001825 103.7439 230.5567  1.00273810 74660
NSS-7                   
1 27414U 02019A   22225.39925125 -.00000177  00000+0  00000+0 0  9993
2 27414   6.0282  70.8501 0002166  83.6278 291.0602  1.00272553 74497
NSS-6                   
1 27603U 02057A   22227.62970566  .00000093  00000+0  00000+0 0  9998
2 27603   1.7565  91.0123 0003510  60.2042 229.9608  1.00274682 71984
AMC-11 (GE-11)          
1 28252U 04017A   22227.22429118  .00000054  00000+0  00000+0 0  9992
2 28252   0.0511 282.0723 0002524 227.8690 123.3847  1.00267526 66828
AMC-15                  
1 28446U 04041A   22227.48524138 -.00000104  00000+0  00000+0 0  9997
2 28446   0.0645 287.5346 0003221 202.8929 263.0563  1.00271933 65266
NSS-10 (AMC-12)         
1 28526U 05003A   22225.68283125 -.00000270  00000+0  00000+0 0  9997
2 28526   2.9237  86.7618 0003073  42.5905  41.0926  1.00271023 39080
ASTRA 1KR               
1 29055U 06012A   22226.93914749  .00000103  00000+0  00000+0 0  9992
2 29055   0.0629 275.0379 0003700 266.4412 139.1248  1.00270596 31662
AMC-18                  
1 29644U 06054B   22227.43432376 -.00000231  00000+0  00000+0 0  9992
2 29644   0.0509 285.1630 0002701 224.9616 247.0317  1.00272305 57484
ASTRA 1L                
1 31306U 07016A   22226.93914749  .00000103  00000+0  00000+0 0  9999
2 31306   0.0744 297.5020 0001374 249.6954 133.3789  1.00273756 55981
ASTRA 4A (SIRIUS 4)     
1 32299U 07057A   22227.71896641  .00000018  00000+0  00000+0 0  9998
2 32299   0.0055 253.8987 0002963 253.4209  80.4040  1.00273237 37612
AMC-21                  
1 33275U 08038B   22227.62079476  .00000022  00000+0  00000+0 0  9997
2 33275   0.0648 285.5763 0002521 215.7134 281.2812  1.00269282 51436
ASTRA 1M                
1 33436U 08057A   22226.93914749  .00000103  00000+0  00000+0 0  9991
2 33436   0.0196 108.5705 0005397  37.7002 174.3415  1.00273478 31669
CIEL-2                  
1 33453U 08063A   22227.61575858  .00000043  00000+0  00000+0 0  9990
2 33453   0.0500 261.8043 0003077 239.7592 275.2317  1.00272113 50079
NSS-9                   
1 33749U 09008A   22227.55919789  .00000057  00000+0  00000+0 0  9991
2 33749   0.0109 315.9959 0002161 195.3848 196.9296  1.00271311 49479
SES-7 (PROTOSTAR 2)     
1 34941U 09027A   22226.90078097 -.00000362  00000+0  00000+0 0  9993
2 34941   0.0230  84.6452 0001101 131.8914 179.2760  1.00270860 48555
NSS-12                  
1 36032U 09058A   22225.68521743  .00000053  00000+0  00000+0 0  9991
2 36032   0.0313 289.2451 0002960 218.9736 117.5376  1.00272320 46835
SES-1                   
1 36516U 10016A   22227.48757369 -.00000129  00000+0  00000+0 0  9994
2 36516   0.0362 312.3587 0002411 190.4311 255.5992  1.00271797 44986
ASTRA 3B                
1 36581U 10021A   22225.69495209  .00000118  00000+0  00000+0 0  9992
2 36581   0.0580  58.9524 0003300  88.4299  88.3766  1.00270401 44806
SES-3                   
1 37748U 11035A   22227.48680284 -.00000116  00000+0  00000+0 0  9991
2 37748   0.0106 345.1911 0002766 166.1366 244.7800  1.00269062 40535
ASTRA 1N                
1 37775U 11041A   22226.93914749  .00000103  00000+0  00000+0 0  9998
2 37775   0.0468  26.6608 0003759  61.0192 232.9068  1.00270134 40349
SES-2                   
1 37809U 11049A   22227.43200576 -.00000211  00000+0  00000+0 0  9997
2 37809   0.0516 291.2140 0002842 208.5905 252.5141  1.00271974 39907
QUETZSAT 1              
1 37826U 11054A   22227.47890022 -.00000257  00000+0  00000+0 0  9997
2 37826   0.0210 354.3072 0002963 154.0084 270.9297  1.00272191 35835
SES-4                   
1 38087U 12007A   22225.68588326 -.00000187  00000+0  00000+0 0  9990
2 38087   0.0128  22.5152 0002235 121.7203  42.7675  1.00271032 38169
SES-5                   
1 38652U 12036A   22227.72517757  .00000019  00000+0  00000+0 0  9990
2 38652   0.0538 289.8280 0002075 213.0963  87.1985  1.00271442 30436
ASTRA 2F                
1 38778U 12051A   22225.69591130  .00000131  00000+0  00000+0 0  9992
2 38778   0.0946 255.2410 0003347 289.2397  56.3271  1.00268952 27051
SES-6                   
1 39172U 13026A   22227.16721303 -.00000277  00000+0  00000+0 0  9997
2 39172   0.0118 310.9884 0002047 197.5034 194.7537  1.00267586 33668
O3B FM5                 
1 39188U 13031A   22227.04511217 -.00000027  00000+0  00000+0 0  9991
2 39188   0.0557  22.0644 0002572 124.1159 213.8327  5.00115247166896
O3B FM4                 
1 39189U 13031B   22226.50150246 -.00000027  00000+0  00000+0 0  9993
2 39189   0.0559 352.8466 0002535 152.1556 215.0109  5.00115789166877
O3B FM2                 
1 39190U 13031C   22227.59243491 -.00000027  00000+0  00000+0 0  9990
2 39190   0.0585 348.2290 0002573 157.3160 214.4685  5.00116814166997
O3B PFM                 
1 39191U 13031D   22225.81964428 -.00000027  00000+0  00000+0 0  9994
2 39191   0.0526  13.0737 0002645 129.6464 217.2946  5.00115665166461
ASTRA 2E                
1 39285U 13056A   22225.69599851  .00000131  00000+0  00000+0 0  9990
2 39285   0.0580  25.7505 0002111 107.8055 107.5908  1.00267372 32369
SES-8                   
1 39460U 13071A   22226.77277674 -.00000287  00000+0  00000+0 0  9991
2 39460   0.0512 270.2742 0002560 210.8870 215.1877  1.00270945 30366
ASTRA 5B                
1 39617U 14011B   22225.59771678  .00000136  00000+0  00000+0 0  9994
2 39617   0.0381 354.4032 0003996 155.2509  58.9871  1.00271800 30599
O3B FM3                 
1 40079U 14038A   22227.67341157 -.00000027  00000+0  00000+0 0  9993
2 40079   0.0550   0.8228 0005028 137.6685 221.5437  5.00115365142932
O3B FM7                 
1 40080U 14038B   22225.42068661 -.00000027  00000+0  00000+0 0  9992
2 40080   0.0587 358.5688 0001161 182.7542 178.6730  5.00115418147644
O3B FM6                 
1 40081U 14038C   22226.44651386 -.00000027  00000+0  00000+0 0  9998
2 40081   0.0543   0.0082 0002692 143.8933 216.1132  5.00115395147644
O3B FM8                 
1 40082U 14038D   22227.69980268 -.00000027  00000+0  00000+0 0  9991
2 40082   0.0538 356.5978 0002675 145.4822 217.9356  5.00115641147830
O3B FM10                
1 40348U 14083A   22227.12615276 -.00000027  00000+0  00000+0 0  9998
2 40348   0.0494   8.4948 0002627 135.2873 216.2324  5.00115162139753
O3B FM11                
1 40349U 14083B   22226.93973406 -.00000027  00000+0  00000+0 0  9999
2 40349   0.0540   9.7183 0002302 148.6632 201.6249  5.00115362139769
O3B FM12                
1 40350U 14083C   22226.96693348 -.00000027  00000+0  00000+0 0  9998
2 40350   0.0536   8.7934 0002707 139.2075 212.0121  5.00115222139776
O3B FM9                 
1 40351U 14083D   22227.39365148 -.00000027  00000+0  00000+0 0  9991
2 40351   0.0551  10.2171 0002584 134.9970 214.7995  5.00115585139932
ASTRA 2G                
1 40364U 14089A   22225.69591130  .00000131  00000+0  00000+0 0  9999
2 40364   0.0343  12.0787 0003734  79.1949 149.5088  1.00272343 27893
SES-9                   
1 41380U 16013A   22225.68799420 -.00000364  00000+0  00000+0 0  9997
2 41380   0.0160 264.5118 0001901 222.7010 190.8598  1.00268001 23369
SES-10                  
1 42432U 17017A   22227.48520830 -.00000288  00000+0  00000+0 0  9993
2 42432   0.0190  78.5354 0002832  65.7932 287.3032  1.00270302 19680
SES-15                  
1 42709U 17026A   22227.52821792  .00000044  00000+0  00000+0 0  9995
2 42709   0.0361 319.3965 0000601 197.7097 227.7982  1.00273037 20087
SES-11 (ECHOSTAR 105)   
1 42967U 17063A   22227.48601638 -.00000104  00000+0  00000+0 0  9990
2 42967   0.0205  96.6369 0002615  55.0536 242.1684  1.00271484 17668
SES-14                  
1 43175U 18012B   22226.12225679 -.00000296  00000+0  00000+0 0  9996
2 43175   0.0065  49.9323 0001069  88.1350 180.9460  1.00271506 16988
O3B FM15                
1 43231U 18024A   22227.05981450 -.00000027  00000+0  00000+0 0  9993
2 43231   0.0459   8.0094 0002890 138.4739 213.5316  5.00115957 80886
O3B FM16                
1 43232U 18024B   22225.91385207 -.00000027  00000+0  00000+0 0  9995
2 43232   0.0417   8.5775 0002864 137.2275 214.2097  5.00115834 80748
O3B FM14                
1 43233U 18024C   22226.55312002 -.00000027  00000+0  00000+0 0  9990
2 43233   0.0403   7.8303 0002680 139.9265 212.2560  5.00115261 80788
O3B FM13                
1 43234U 18024D   22226.80650651 -.00000027  00000+0  00000+0 0  9994
2 43234   0.0484  34.6114 0003558 120.7867 204.6154  5.00114991 80915
SES-12                  
1 43488U 18049A   22226.77277675 -.00000286  00000+0  00000+0 0  9996
2 43488   0.0144  64.3470 0001351 161.1720 110.8220  1.00270849 15359
O3B FM20                
1 44112U 19020A   22226.77973240 -.00000027  00000+0  00000+0 0  9995
2 44112   0.0493   7.6482 0002932 145.8806 206.4827  5.00115421 61415
O3B FM19                
1 44113U 19020B   22226.80650504 -.00000027  00000+0  00000+0 0  9995
2 44113   0.0580  21.4069 0001755 129.5542 209.0452  5.00114974 61286
O3B FM17                
1 44114U 19020C   22226.88704952 -.00000027  00000+0  00000+0 0  9991
2 44114   0.0416 344.1347 0003000 163.2930 212.5874  5.00115512 61365
O3B FM18                
1 44115U 19020D   22227.03347137 -.00000027  00000+0  00000+0 0  9998
2 44115   0.0495   8.1120 0002873 135.9063 215.9977  5.00115739 61507
SES-17                  
1 49332U 21095A   22227.48520819 -.00000287  00000+0  00000+0 0  9996
2 49332   0.0154 107.6387 0001145  39.3968 284.3851  1.00269532  3781
SES-22                  
1 52933U 22071A   22227.60740580  .00000073  00000+0  00000+0 0  9997
2 52933   0.0570 282.6983 0002308 232.9359 252.0060  1.00273523   491
